{
  "type": "FeatureCollection",
  "features": [
    {
      "type": "Feature",
      "properties": {
        "norad_id": 37836,
        "name": "EUTELSAT 16A",
        "group": "eutelsat",
        "lat": 0.02364451328597723,
        "lon": 21.28757812516067,
        "alt_km": 35796.64430087365,
        "timestamp": "2025-12-13T18:50:04.099743+00:00",
        "meta_object_name": "EUTELSAT 16A",
        "meta_object_id": "2011-057A",
        "meta_epoch": "2025-12-13T03:15:07.883424",
        "meta_mean_motion": 1.0027248,
        "meta_eccentricity": 0.00060455,
        "meta_inclination": 0.0599,
        "meta_ra_of_asc_node": 10.8984,
        "meta_arg_of_pericenter": 255.3927,
        "meta_mean_anomaly": 240.5655,
        "meta_ephemeris_type": 0,
        "meta_classification_type": "U",
        "meta_norad_cat_id": 37836,
        "meta_element_set_no": 999,
        "meta_rev_at_epoch": 546,
        "meta_bstar": 0,
        "meta_mean_motion_dot": 1.17e-06,
        "meta_mean_motion_ddot": 0,
        "tle_line1": "1 37836U 11057A   25347.13550791  .00000117  00000+0  00000+0 0  9990",
        "tle_line2": "2 37836   0.0599  10.8984 0006045 255.3927 240.5655  1.00272480  5466"
      },
      "geometry": {
        "type": "Point",
        "coordinates": [
          21.28757812516067,
          0.02364451328597723
        ]
      }
    },
    {
      "type": "Feature",
      "properties": {
        "norad_id": 38992,
        "name": "EUTELSAT 21B",
        "group": "eutelsat",
        "lat": 0.03740267330411136,
        "lon": 26.857376234621135,
        "alt_km": 35791.772107798955,
        "timestamp": "2025-12-13T18:50:04.099755+00:00",
        "meta_object_name": "EUTELSAT 21B",
        "meta_object_id": "2012-062B",
        "meta_epoch": "2025-12-13T03:16:45.227712",
        "meta_mean_motion": 1.00272666,
        "meta_eccentricity": 0.00033725,
        "meta_inclination": 0.0672,
        "meta_ra_of_asc_node": 6.8592,
        "meta_arg_of_pericenter": 265.1431,
        "meta_mean_anomaly": 240.8582,
        "meta_ephemeris_type": 0,
        "meta_classification_type": "U",
        "meta_norad_cat_id": 38992,
        "meta_element_set_no": 999,
        "meta_rev_at_epoch": 4796,
        "meta_bstar": 0,
        "meta_mean_motion_dot": 1.43e-06,
        "meta_mean_motion_ddot": 0,
        "tle_line1": "1 38992U 12062B   25347.13663458  .00000143  00000+0  00000+0 0  9995",
        "tle_line2": "2 38992   0.0672   6.8592 0003372 265.1431 240.8582  1.00272666 47960"
      },
      "geometry": {
        "type": "Point",
        "coordinates": [
          26.857376234621135,
          0.03740267330411136
        ]
      }
    },
    {
      "type": "Feature",
      "properties": {
        "norad_id": 39020,
        "name": "EUTELSAT 70B",
        "group": "eutelsat",
        "lat": 0.08113066248448665,
        "lon": 75.72232901087499,
        "alt_km": 35804.42778815279,
        "timestamp": "2025-12-13T18:50:04.099767+00:00",
        "meta_object_name": "EUTELSAT 70B",
        "meta_object_id": "2012-069A",
        "meta_epoch": "2025-12-13T05:13:19.063200",
        "meta_mean_motion": 1.00270809,
        "meta_eccentricity": 0.00043206,
        "meta_inclination": 0.0619,
        "meta_ra_of_asc_node": 346.8994,
        "meta_arg_of_pericenter": 260.3759,
        "meta_mean_anomaly": 343.7178,
        "meta_ephemeris_type": 0,
        "meta_classification_type": "U",
        "meta_norad_cat_id": 39020,
        "meta_element_set_no": 999,
        "meta_rev_at_epoch": 4764,
        "meta_bstar": 0,
        "meta_mean_motion_dot": -3e-07,
        "meta_mean_motion_ddot": 0,
        "tle_line1": "1 39020U 12069A   25347.21758175 -.00000030  00000+0  00000+0 0  9991",
        "tle_line2": "2 39020   0.0619 346.8994 0004320 260.3759 343.7178  1.00270809 47647"
      },
      "geometry": {
        "type": "Point",
        "coordinates": [
          75.72232901087499,
          0.08113066248448665
        ]
      }
    },
    {
      "type": "Feature",
      "properties": {
        "norad_id": 39122,
        "name": "EUTELSAT 117 WEST A",
        "group": "eutelsat",
        "lat": -0.028890398512293906,
        "lon": -111.59575894942755,
        "alt_km": 35774.35686740701,
        "timestamp": "2025-12-13T18:50:04.099780+00:00",
        "meta_object_name": "EUTELSAT 117 WEST A",
        "meta_object_id": "2013-012A",
        "meta_epoch": "2025-12-13T05:13:48.663840",
        "meta_mean_motion": 1.00271833,
        "meta_eccentricity": 0.00028899,
        "meta_inclination": 0.0167,
        "meta_ra_of_asc_node": 18.6403,
        "meta_arg_of_pericenter": 246.8525,
        "meta_mean_anomaly": 138.3061,
        "meta_ephemeris_type": 0,
        "meta_classification_type": "U",
        "meta_norad_cat_id": 39122,
        "meta_element_set_no": 999,
        "meta_rev_at_epoch": 4656,
        "meta_bstar": 0,
        "meta_mean_motion_dot": 1e-08,
        "meta_mean_motion_ddot": 0,
        "tle_line1": "1 39122U 13012A   25347.21792435  .00000001  00000+0  00000+0 0  9997",
        "tle_line2": "2 39122   0.0167  18.6403 0002889 246.8525 138.3061  1.00271833 46562"
      },
      "geometry": {
        "type": "Point",
        "coordinates": [
          -111.59575894942755,
          -0.028890398512293906
        ]
      }
    },
    {
      "type": "Feature",
      "properties": {
        "norad_id": 39163,
        "name": "EUTELSAT 7B",
        "group": "eutelsat",
        "lat": -0.0018743369899062925,
        "lon": 12.266053617941962,
        "alt_km": 35774.17888099651,
        "timestamp": "2025-12-13T18:50:04.099793+00:00",
        "meta_object_name": "EUTELSAT 7B",
        "meta_object_id": "2013-022A",
        "meta_epoch": "2025-12-13T04:55:20.784288",
        "meta_mean_motion": 1.00273243,
        "meta_eccentricity": 0.00046461,
        "meta_inclination": 0.0744,
        "meta_ra_of_asc_node": 22.0516,
        "meta_arg_of_pericenter": 296.2554,
        "meta_mean_anomaly": 204.6691,
        "meta_ephemeris_type": 0,
        "meta_classification_type": "U",
        "meta_norad_cat_id": 39163,
        "meta_element_set_no": 999,
        "meta_rev_at_epoch": 4609,
        "meta_bstar": 0,
        "meta_mean_motion_dot": 6.2e-07,
        "meta_mean_motion_ddot": 0,
        "tle_line1": "1 39163U 13022A   25347.20510167  .00000062  00000+0  00000+0 0  9999",
        "tle_line2": "2 39163   0.0744  22.0516 0004646 296.2554 204.6691  1.00273243 46097"
      },
      "geometry": {
        "type": "Point",
        "coordinates": [
          12.266053617941962,
          -0.0018743369899062925
        ]
      }
    },
    {
      "type": "Feature",
      "properties": {
        "norad_id": 39612,
        "name": "EXPRESS-AT1",
        "group": "eutelsat",
        "lat": 0.03525537859368944,
        "lon": 61.20790828049338,
        "alt_km": 35786.59396379459,
        "timestamp": "2025-12-13T18:50:04.099806+00:00",
        "meta_object_name": "EXPRESS-AT1",
        "meta_object_id": "2014-010A",
        "meta_epoch": "2025-12-13T05:09:19.444896",
        "meta_mean_motion": 1.00270773,
        "meta_eccentricity": 6.81e-06,
        "meta_inclination": 0.0161,
        "meta_ra_of_asc_node": 324.9863,
        "meta_arg_of_pericenter": 266.3434,
        "meta_mean_anomaly": 344.1406,
        "meta_ephemeris_type": 0,
        "meta_classification_type": "U",
        "meta_norad_cat_id": 39612,
        "meta_element_set_no": 999,
        "meta_rev_at_epoch": 4295,
        "meta_bstar": 0,
        "meta_mean_motion_dot": 0,
        "meta_mean_motion_ddot": 0,
        "tle_line1": "1 39612U 14010A   25347.21480839  .00000000  00000+0  00000+0 0  9991",
        "tle_line2": "2 39612   0.0161 324.9863 0000068 266.3434 344.1406  1.00270773 42957"
      },
      "geometry": {
        "type": "Point",
        "coordinates": [
          61.20790828049338,
          0.03525537859368944
        ]
      }
    },
    {
      "type": "Feature",
      "properties": {
        "norad_id": 39613,
        "name": "EXPRESS-AT2",
        "group": "eutelsat",
        "lat": -0.002998775017833047,
        "lon": 145.0656523426571,
        "alt_km": 35791.81771219763,
        "timestamp": "2025-12-13T18:50:04.099818+00:00",
        "meta_object_name": "EXPRESS-AT2",
        "meta_object_id": "2014-010B",
        "meta_epoch": "2025-12-13T06:03:32.565600",
        "meta_mean_motion": 1.00270486,
        "meta_eccentricity": 0.00014697,
        "meta_inclination": 0.0188,
        "meta_ra_of_asc_node": 313.712,
        "meta_arg_of_pericenter": 340.5083,
        "meta_mean_anomaly": 18.7089,
        "meta_ephemeris_type": 0,
        "meta_classification_type": "U",
        "meta_norad_cat_id": 39613,
        "meta_element_set_no": 999,
        "meta_rev_at_epoch": 4263,
        "meta_bstar": 0,
        "meta_mean_motion_dot": -2.67e-06,
        "meta_mean_motion_ddot": 0,
        "tle_line1": "1 39613U 14010B   25347.25246025 -.00000267  00000+0  00000+0 0  9999",
        "tle_line2": "2 39613   0.0188 313.7120 0001469 340.5083  18.7089  1.00270486 42637"
      },
      "geometry": {
        "type": "Point",
        "coordinates": [
          145.0656523426571,
          -0.002998775017833047
        ]
      }
    }
  ]
}